[{"OBJECT_NAME":"STARLINK-5752","OBJECT_ID":"2023-020J","EPOCH":"2026-03-09T22:00:01.999584","MEAN_MOTION":15.13538,"ECCENTRICITY":0.00010147,"INCLINATION":43.0004,"RA_OF_ASC_NODE":3.091,"ARG_OF_PERICENTER":327.4506,"MEAN_ANOMALY":133.8934,"EPHEMERIS_TYPE":0,"CLASSIFICATION_TYPE":"U","NORAD_CAT_ID":55577,"ELEMENT_SET_NO":999,"REV_AT_EPOCH":577,"BSTAR":0.0030117001,"MEAN_MOTION_DOT":0.00055137,"MEAN_MOTION_DDOT":0},{"OBJECT_NAME":"SITRO-AIS 25","OBJECT_ID":"2024-039R","EPOCH":"2026-03-09T23:42:54.414720","MEAN_MOTION":14.92631971,"ECCENTRICITY":0.01453919,"INCLINATION":95.3931,"RA_OF_ASC_NODE":166.9537,"ARG_OF_PERICENTER":315.2559,"MEAN_ANOMALY":43.701,"EPHEMERIS_TYPE":0,"CLASSIFICATION_TYPE":"U","NORAD_CAT_ID":59066,"ELEMENT_SET_NO":999,"REV_AT_EPOCH":10992,"BSTAR":0.00036753428,"MEAN_MOTION_DOT":4.616e-5,"MEAN_MOTION_DDOT":0}]
